GPS BIIR-2  (PRN 13)    
1 24876U 97035A   22068.14777951 -.00000019  00000+0  00000+0 0  9999
2 24876  55.4960 159.5867 0056258  52.9847 307.5591  2.00563528180640
GPS BIIR-4  (PRN 20)    
1 26360U 00025A   22068.14997167 -.00000028  00000+0  00000+0 0  9995
2 26360  53.9780  83.0096 0050910 182.9278 264.2802  2.00552928159966
GPS BIIR-6  (PRN 22)    
1 26605U 00071A   22068.32440608 -.00000022  00000+0  00000+0 0  9995
2 26605  55.0780 156.6156 0132574 253.2764  93.0746  2.00564586156206
GPS BIIR-8  (PRN 16)    
1 27663U 03005A   22068.51940196  .00000020  00000+0  00000+0 0  9995
2 27663  55.5811 277.0270 0126262  40.1689 295.9459  2.00570579140006
GPS BIIR-9  (PRN 21)    
1 27704U 03010A   22068.50221498 -.00000084  00000+0  00000+0 0  9994
2 27704  54.9879  27.3535 0247261 302.9210 240.0533  2.00575679138806
GPS BIIR-11 (PRN 19)    
1 28190U 04009A   22068.45540000 -.00000096  00000+0  00000+0 0  9993
2 28190  56.0599 337.9867 0088242 116.1311 332.1121  2.00562406131640
GPS BIIR-13 (PRN 02)    
1 28474U 04045A   22068.18440437 -.00000084  00000+0  00000+0 0  9998
2 28474  55.3167  27.4679 0208335 277.6430 242.7618  2.00560280127125
GPS BIIRM-1 (PRN 17)    
1 28874U 05038A   22068.45570529 -.00000093  00000+0  00000+0 0  9991
2 28874  56.1302 335.4162 0138011 274.3107 194.3336  2.00552835120530
GPS BIIRM-2 (PRN 31)    
1 29486U 06042A   22068.44908253  .00000035  00000+0  00000+0 0  9990
2 29486  54.7295 213.2488 0103732  20.6856   2.4535  2.00560289113099
GPS BIIRM-3 (PRN 12)    
1 29601U 06052A   22067.86516012  .00000016  00000+0  00000+0 0  9992
2 29601  55.5854 275.9868 0084955  71.5151 289.4330  2.00573589112099
GPS BIIRM-4 (PRN 15)    
1 32260U 07047A   22068.17428420 -.00000027  00000+0  00000+0 0  9995
2 32260  53.2857 144.6991 0137398  61.3991 300.0269  2.00554227105507
GPS BIIRM-5 (PRN 29)    
1 32384U 07062A   22068.24522331 -.00000095  00000+0  00000+0 0  9998
2 32384  56.2462 336.1729 0017253 133.0316  48.8922  2.00556278104208
GPS BIIRM-6 (PRN 07)    
1 32711U 08012A   22068.09208321  .00000034  00000+0  00000+0 0  9993
2 32711  54.4876 212.2217 0158468 229.5029 129.0744  2.00561901102440
GPS BIIRM-8 (PRN 05)    
1 35752U 09043A   22068.56161236 -.00000020  00000+0  00000+0 0  9997
2 35752  54.9954  89.5489 0056743  56.3922 300.9061  2.00563002 92058
GPS BIIF-1  (PRN 25)    
1 36585U 10022A   22068.15723211  .00000024  00000+0  00000+0 0  9996
2 36585  54.8661 271.5638 0103479  55.9135 125.1379  2.00560291 86280
GPS BIIF-2  (PRN 01)    
1 37753U 11036A   22068.54389951 -.00000073  00000+0  00000+0 0  9997
2 37753  56.5622  32.5938 0113497  49.8825 135.1786  2.00564877 77974
GPS BIIF-3  (PRN 24)    
1 38833U 12053A   22068.27145372  .00000027  00000+0  00000+0 0  9992
2 38833  53.5407 207.4530 0122187  45.7167 315.2463  2.00560683 68135
GPS BIIF-4  (PRN 27)    
1 39166U 13023A   22068.13134990 -.00000090  00000+0  00000+0 0  9990
2 39166  55.7616 331.8410 0102087  36.1859 324.5372  2.00566637 64570
GPS BIIF-5  (PRN 30)    
1 39533U 14008A   22068.12515038  .00000033  00000+0  00000+0 0  9993
2 39533  53.6374 212.9543 0057000 205.5127 154.1727  2.00575200 58374
GPS BIIF-6  (PRN 06)    
1 39741U 14026A   22067.90868483 -.00000076  00000+0  00000+0 0  9992
2 39741  56.5256  32.1447 0028818 304.0399  55.6782  2.00563214 57223
GPS BIIF-7  (PRN 09)    
1 40105U 14045A   22068.00010115 -.00000023  00000+0  00000+0 0  9994
2 40105  54.6687 150.8151 0019733 109.6201 250.6363  2.00571017 54761
GPS BIIF-8  (PRN 03)    
1 40294U 14068A   22068.37351659 -.00000018  00000+0  00000+0 0  9993
2 40294  55.7399  91.8881 0037391  52.1694 308.2201  2.00564654 53909
GPS BIIF-9  (PRN 26)    
1 40534U 15013A   22068.50572701  .00000029  00000+0  00000+0 0  9990
2 40534  53.7684 268.8333 0068320  19.9381 340.3445  2.00558736 50525
GPS BIIF-10 (PRN 08)    
1 40730U 15033A   22068.17040670 -.00000089  00000+0  00000+0 0  9995
2 40730  55.2626 330.7159 0073340   5.2650 354.8499  2.00557343 48682
GPS BIIF-11 (PRN 10)    
1 41019U 15062A   22068.21905058 -.00000020  00000+0  00000+0 0  9998
2 41019  55.7296  91.7349 0076780 217.8786 141.6290  2.00563123 46523
GPS BIIF-12 (PRN 32)    
1 41328U 16007A   22068.31598003 -.00000025  00000+0  00000+0 0  9995
2 41328  54.8891 151.4499 0058960 228.2713 131.2652  2.00574982 44534
GPS BIII-1  (PRN 04)    
1 43873U 18109A   22068.55977208 -.00000025  00000+0  00000+0 0  9991
2 43873  55.0700 153.8374 0017750 193.9911 238.9808  2.00566866 23774
GPS BIII-2  (PRN 18)    
1 44506U 19056A   22068.30200910 -.00000076  00000+0  00000+0 0  9995
2 44506  55.6337  33.0321 0021226 183.5584 326.3444  2.00570823 18764
GPS BIII-3  (PRN 23)    
1 45854U 20041A   22068.34823723 -.00000020  00000+0  00000+0 0  9994
2 45854  55.4468  90.2990 0019762 177.6676 304.2460  2.00560307 12739
GPS BIII-4  (PRN 14)    
1 46826U 20078A   22068.23295045  .00000020  00000+0  00000+0 0  9991
2 46826  54.6343 274.1591 0015279 181.5015 189.7793  2.00566306 10202
GPS BIII-5 (PRN 11)     
1 48859U 21054A   22068.12610787 -.00000075  00000+0  00000+0 0  9997
2 48859  55.1369  35.0881 0002913 208.7383 269.0712  2.00551534  5441
